{
  "norad_id": 62973,
  "name": "HULIANWANG DIGUI-13",
  "history": [
    {
      "epoch": "2026-03-28T18:50:09.942720Z",
      "apogee_km": 1149.9835933849872,
      "perigee_km": 1148.648674846182,
      "latitude_deg": -1.0330719266956968e-05,
      "longitude_deg": 55.45275655261213,
      "height_km": 1150.156841493895,
      "semi_major_axis_km": 7527.453134115584,
      "eccentricity": 8.867e-05,
      "inclination_deg": 50.0017,
      "raan_deg": 164.1945,
      "arg_perigee_deg": 239.9965,
      "mean_anomaly_deg": 120.0819,
      "mean_motion_rev_day": 13.29323467
    },
    {
      "epoch": "2026-03-29T05:39:43.035264Z",
      "apogee_km": 1149.9909464673956,
      "perigee_km": 1148.6405214469241,
      "latitude_deg": -3.885878138667167e-05,
      "longitude_deg": -108.99765505846302,
      "height_km": 1150.1413949722096,
      "semi_major_axis_km": 7527.45273395716,
      "eccentricity": 8.97e-05,
      "inclination_deg": 50.0017,
      "raan_deg": 162.5766,
      "arg_perigee_deg": 241.8367,
      "mean_anomaly_deg": 118.2414,
      "mean_motion_rev_day": 13.29323573
    },
    {
      "epoch": "2026-03-30T05:07:04.741248Z",
      "apogee_km": 1149.9956873593592,
      "perigee_km": 1148.6348745360092,
      "latitude_deg": 6.280732897089314e-05,
      "longitude_deg": -105.30671605443534,
      "height_km": 1150.1090175956529,
      "semi_major_axis_km": 7527.452280947684,
      "eccentricity": 9.039e-05,
      "inclination_deg": 50.0015,
      "raan_deg": 159.0712,
      "arg_perigee_deg": 245.0729,
      "mean_anomaly_deg": 115.005,
      "mean_motion_rev_day": 13.29323693
    },
    {
      "epoch": "2026-03-30T14:08:22.324128Z",
      "apogee_km": 1149.9969634847148,
      "perigee_km": 1148.6337418636458,
      "latitude_deg": 6.671340612422368e-05,
      "longitude_deg": 117.65132371457692,
      "height_km": 1150.0967945971329,
      "semi_major_axis_km": 7527.4523526741805,
      "eccentricity": 9.055e-05,
      "inclination_deg": 50.0015,
      "raan_deg": 157.723,
      "arg_perigee_deg": 246.2549,
      "mean_anomaly_deg": 113.8229,
      "mean_motion_rev_day": 13.29323674
    },
    {
      "epoch": "2026-03-30T21:21:24.384384Z",
      "apogee_km": 1150.0019804498306,
      "perigee_km": 1148.628672047429,
      "latitude_deg": -3.623070857234795e-05,
      "longitude_deg": 8.017652254240069,
      "height_km": 1150.0840490676376,
      "semi_major_axis_km": 7527.452326248629,
      "eccentricity": 9.122e-05,
      "inclination_deg": 50.0015,
      "raan_deg": 156.6444,
      "arg_perigee_deg": 247.5952,
      "mean_anomaly_deg": 112.4823,
      "mean_motion_rev_day": 13.29323681
    },
    {
      "epoch": "2026-03-31T17:12:15.062400Z",
      "apogee_km": 1150.0063803510075,
      "perigee_km": 1148.62434009767,
      "latitude_deg": 1.105607064758801e-05,
      "longitude_deg": 66.52533027387501,
      "height_km": 1150.051458351321,
      "semi_major_axis_km": 7527.452360224338,
      "eccentricity": 9.18e-05,
      "inclination_deg": 50.0014,
      "raan_deg": 153.6783,
      "arg_perigee_deg": 250.6393,
      "mean_anomaly_deg": 109.438,
      "mean_motion_rev_day": 13.29323672
    },
    {
      "epoch": "2026-04-01T20:16:07.786848Z",
      "apogee_km": 1150.0156865594736,
      "perigee_km": 1148.6140750192708,
      "latitude_deg": -5.898407471372322e-06,
      "longitude_deg": 15.399526856915237,
      "height_km": 1150.0041009433644,
      "semi_major_axis_km": 7527.451880789372,
      "eccentricity": 9.31e-05,
      "inclination_deg": 50.0014,
      "raan_deg": 149.6337,
      "arg_perigee_deg": 254.9335,
      "mean_anomaly_deg": 105.1434,
      "mean_motion_rev_day": 13.29323799
    },
    {
      "epoch": "2026-04-02T19:43:29.483328Z",
      "apogee_km": 1150.0203148888422,
      "perigee_km": 1148.6087671758678,
      "latitude_deg": 1.198822094527368e-05,
      "longitude_deg": 19.090435762840773,
      "height_km": 1149.963704501696,
      "semi_major_axis_km": 7527.451541032355,
      "eccentricity": 9.376e-05,
      "inclination_deg": 50.0013,
      "raan_deg": 146.1283,
      "arg_perigee_deg": 258.3846,
      "mean_anomaly_deg": 101.6921,
      "mean_motion_rev_day": 13.29323889
    },
    {
      "epoch": "2026-04-03T15:34:20.140608Z",
      "apogee_km": 1150.020802417278,
      "perigee_km": 1148.6071471242167,
      "latitude_deg": 1.775751356936694e-05,
      "longitude_deg": 77.59826470297801,
      "height_km": 1149.9302846789524,
      "semi_major_axis_km": 7527.450974770747,
      "eccentricity": 9.39e-05,
      "inclination_deg": 50.0012,
      "raan_deg": 143.1623,
      "arg_perigee_deg": 261.1087,
      "mean_anomaly_deg": 98.9679,
      "mean_motion_rev_day": 13.29324039
    },
    {
      "epoch": "2026-04-04T20:26:28.346208Z",
      "apogee_km": 1150.036758739112,
      "perigee_km": 1148.589982777853,
      "latitude_deg": 6.525369392931317e-05,
      "longitude_deg": -0.9357919670795235,
      "height_km": 1149.8650400163167,
      "semi_major_axis_km": 7527.450370758483,
      "eccentricity": 9.61e-05,
      "inclination_deg": 50.0012,
      "raan_deg": 138.848,
      "arg_perigee_deg": 266.467,
      "mean_anomaly_deg": 93.6093,
      "mean_motion_rev_day": 13.29324199
    },
    {
      "epoch": "2026-04-05T12:40:47.954784Z",
      "apogee_km": 1150.043754086435,
      "perigee_km": 1148.5820738621396,
      "latitude_deg": 1.3718493480423574e-05,
      "longitude_deg": 112.38875852077737,
      "height_km": 1149.833808754699,
      "semi_major_axis_km": 7527.4499139742875,
      "eccentricity": 9.709e-05,
      "inclination_deg": 50.0011,
      "raan_deg": 136.4212,
      "arg_perigee_deg": 268.9185,
      "mean_anomaly_deg": 91.1576,
      "mean_motion_rev_day": 13.2932432
    },
    {
      "epoch": "2026-04-05T16:17:18.976704Z",
      "apogee_km": 1150.0452102612999,
      "perigee_km": 1148.5803685322844,
      "latitude_deg": -4.331851764543895e-05,
      "longitude_deg": 57.571951994974995,
      "height_km": 1149.8248204579647,
      "semi_major_axis_km": 7527.449789396792,
      "eccentricity": 9.73e-05,
      "inclination_deg": 50.0011,
      "raan_deg": 135.8819,
      "arg_perigee_deg": 269.615,
      "mean_anomaly_deg": 90.461,
      "mean_motion_rev_day": 13.29324353
    },
    {
      "epoch": "2026-04-06T04:55:07.557312Z",
      "apogee_km": 1150.0501481745987,
      "perigee_km": 1148.575370217778,
      "latitude_deg": 1.3606577369211665e-05,
      "longitude_deg": -134.2867230607531,
      "height_km": 1149.8043242983017,
      "semi_major_axis_km": 7527.449759196188,
      "eccentricity": 9.796e-05,
      "inclination_deg": 50.001,
      "raan_deg": 133.9943,
      "arg_perigee_deg": 271.2072,
      "mean_anomaly_deg": 88.8688,
      "mean_motion_rev_day": 13.29324361
    },
    {
      "epoch": "2026-04-07T13:23:46.760640Z",
      "apogee_km": 1150.0515842999912,
      "perigee_km": 1148.5728921716327,
      "latitude_deg": -2.2386949682169537e-06,
      "longitude_deg": 92.36230705233157,
      "height_km": 1149.7469743711417,
      "semi_major_axis_km": 7527.449238235812,
      "eccentricity": 9.822e-05,
      "inclination_deg": 50.0009,
      "raan_deg": 129.1405,
      "arg_perigee_deg": 275.6163,
      "mean_anomaly_deg": 84.4597,
      "mean_motion_rev_day": 13.29324499
    },
    {
      "epoch": "2026-04-07T18:48:33.293088Z",
      "apogee_km": 1150.0566878636819,
      "perigee_km": 1148.5677584073455,
      "latitude_deg": -3.659189323643788e-05,
      "longitude_deg": 10.137191554412071,
      "height_km": 1149.7327985995184,
      "semi_major_axis_km": 7527.449223135513,
      "eccentricity": 9.89e-05,
      "inclination_deg": 50.0009,
      "raan_deg": 128.3316,
      "arg_perigee_deg": 276.6744,
      "mean_anomaly_deg": 83.4015,
      "mean_motion_rev_day": 13.29324503
    },
    {
      "epoch": "2026-04-08T12:51:08.408736Z",
      "apogee_km": 1150.0594841117427,
      "perigee_km": 1148.5648338067404,
      "latitude_deg": 1.7023240466977676e-05,
      "longitude_deg": 96.05331554396608,
      "height_km": 1149.6976768307693,
      "semi_major_axis_km": 7527.449158959242,
      "eccentricity": 9.928e-05,
      "inclination_deg": 50.0008,
      "raan_deg": 125.635,
      "arg_perigee_deg": 279.3619,
      "mean_anomaly_deg": 80.7141,
      "mean_motion_rev_day": 13.2932452
    },
    {
      "epoch": "2026-04-09T19:31:32.103264Z",
      "apogee_km": 1150.0684221952079,
      "perigee_km": 1148.5554049635775,
      "latitude_deg": -3.387466688909143e-05,
      "longitude_deg": -9.889263499999437,
      "height_km": 1149.63164097096,
      "semi_major_axis_km": 7527.448913579392,
      "eccentricity": 0.0001005,
      "inclination_deg": 50.0007,
      "raan_deg": 121.0509,
      "arg_perigee_deg": 284.3386,
      "mean_anomaly_deg": 75.7374,
      "mean_motion_rev_day": 13.29324585
    }
  ]
}